NORAD_CAT_ID,OBJECT_NAME,OBJECT_TYPE,EPOCH,MEAN_MOTION,ECCENTRICITY,INCLINATION,RA_OF_ASC_NODE,ARG_OF_PERICENTER,MEAN_ANOMALY,BSTAR,MEAN_MOTION_DOT,MEAN_MOTION_DDOT,TLE_LINE0,TLE_LINE1,TLE_LINE2,SEMIMAJOR_AXIS,PERIOD,APOGEE,PERIGEE,DECAYED
52581.0,STARLINK-3915,PAYLOAD,2023-03-30 19:07:02,15.08854616,0.0001082,53.2151,264.504,99.6945,260.4169,0.00059767,9.241e-05,0.0,0 STARLINK-3915,1 52581U 22051AX  23089.79656175  .00009241  00000-0  59767-3 0  9992,2 52581  53.2151 264.5040 0001082  99.6945 260.4169 15.08854616 49313,6917.836,95.437,540.449,538.952,0.0
52581.0,STARLINK-3915,PAYLOAD,2023-03-31 04:39:21,15.08847639,0.0001305,53.2157,262.722,72.8639,287.2496,0.00040328,6.137e-05,0.0,0 STARLINK-3915,1 52581U 22051AX  23090.19400329  .00006137  00000-0  40328-3 0  9990,2 52581  53.2157 262.7220 0001305  72.8639 287.2496 15.08847639 49441,6917.857,95.437,540.625,538.819,0.0
52581.0,STARLINK-3915,PAYLOAD,2023-03-31 20:33:13,15.08841752,0.0001103,53.2153,259.7456,69.8727,290.2384,0.00029899,4.474e-05,0.0,0 STARLINK-3915,1 52581U 22051AX  23090.85640416  .00004474  00000-0  29899-3 0  9998,2 52581  53.2153 259.7456 0001103  69.8727 290.2384 15.08841752 49545,6917.875,95.437,540.503,538.977,0.0
52581.0,STARLINK-3915,PAYLOAD,2023-04-01 04:30:09,15.08826203,0.0001156,53.2156,258.26,61.909,298.2018,0.00018396,2.64e-05,0.0,0 STARLINK-3915,1 52581U 22051AX  23091.18761055  .00002640  00000-0  18396-3 0  9991,2 52581  53.2156 258.2600 0001156  61.9090 298.2018 15.08826203 49598,6917.923,95.438,540.587,538.988,0.0
52581.0,STARLINK-3915,PAYLOAD,2023-04-01 17:13:14,15.08840987,0.0001465,53.2156,255.8813,53.091,307.0216,0.00071971,0.00011185,0.0,0 STARLINK-3915,1 52581U 22051AX  23091.71753345  .00011185  00000-0  71971-3 0  9995,2 52581  53.2156 255.8813 0001465  53.0910 307.0216 15.08840987 49609,6917.877,95.437,540.756,538.729,0.0
52581.0,STARLINK-3915,PAYLOAD,2023-04-02 04:20:56,15.0884581,0.0001617,53.2158,253.8022,31.5578,328.551,0.00091371,0.00014286,0.0,0 STARLINK-3915,1 52581U 22051AX  23092.18121397  .00014286  00000-0  91371-3 0  9994,2 52581  53.2158 253.8022 0001617  31.5578 328.5510 15.08845810 49741,6917.863,95.437,540.846,538.609,0.0
52581.0,STARLINK-3915,PAYLOAD,2023-04-02 10:42:29,15.08849574,0.0001301,53.2143,252.6118,37.768,322.3403,0.00088979,0.00013905,0.0,0 STARLINK-3915,1 52581U 22051AX  23092.44617340  .00013905  00000-0  88979-3 0  9998,2 52581  53.2143 252.6118 0001301  37.7680 322.3403 15.08849574 49711,6917.851,95.437,540.616,538.816,0.0
52581.0,STARLINK-3915,PAYLOAD,2023-04-02 17:04:01,15.08858046,0.0001274,53.2142,251.422,40.8787,319.2301,0.00080667,0.0001258,0.0,0 STARLINK-3915,1 52581U 22051AX  23092.71112951  .00012580  00000-0  80667-3 0  9990,2 52581  53.2142 251.4220 0001274  40.8787 319.2301 15.08858046 49753,6917.825,95.436,540.572,538.809,0.0
52581.0,STARLINK-3915,PAYLOAD,2023-04-02 21:50:10,15.08869761,0.0001333,53.2149,250.5279,48.5122,311.5984,0.00096597,0.00015131,0.0,0 STARLINK-3915,1 52581U 22051AX  23092.90984478  .00015131  00000-0  96597-3 0  9996,2 52581  53.2149 250.5279 0001333  48.5122 311.5984 15.08869761 49789,6917.789,95.436,540.577,538.732,0.0
52581.0,STARLINK-3915,PAYLOAD,2023-04-04 02:27:06,15.0882905,3.21e-05,53.2144,245.1767,71.0821,289.0205,2.5142e-05,1.13e-06,0.0,0 STARLINK-3915,1 52581U 22051AX  23094.10216330  .00000113  00000-0  25142-4 0  9998,2 52581  53.2144 245.1767 0000321  71.0821 289.0205 15.08829050 50031,6917.914,95.438,540.001,539.557,0.0
52581.0,STARLINK-3915,PAYLOAD,2023-04-04 10:24:02,15.08851585,0.0001498,53.2155,243.6902,69.7833,290.332,0.00095636,0.0001497,0.0,0 STARLINK-3915,1 52581U 22051AX  23094.43336683  .00014970  00000-0  95636-3 0  9998,2 52581  53.2155 243.6902 0001498  69.7833 290.3320 15.08851585 50086,6917.845,95.437,540.746,538.674,0.0
52581.0,STARLINK-3915,PAYLOAD,2023-04-05 13:25:36,15.08835101,0.0001085,53.2165,238.6331,88.0412,272.0704,0.00014184,1.97e-05,0.0,0 STARLINK-3915,1 52581U 22051AX  23095.55944972  .00001970  00000-0  14184-3 0  9993,2 52581  53.2165 238.6331 0001085  88.0412 272.0704 15.08835101 50186,6917.895,95.438,540.511,539.01,0.0
52581.0,STARLINK-3915,PAYLOAD,2023-04-05 16:36:22,15.08837091,9.26e-05,53.2169,238.0406,96.8502,263.2596,0.00047663,7.305e-05,0.0,0 STARLINK-3915,1 52581U 22051AX  23095.69192950  .00007305  00000-0  47663-3 0  9995,2 52581  53.2169 238.0406 0000926  96.8502 263.2596 15.08837091 50278,6917.889,95.438,540.395,539.114,0.0
52581.0,STARLINK-3915,PAYLOAD,2023-04-05 19:47:09,15.08844152,0.0001088,53.2155,237.4433,78.1454,281.966,0.001165,0.00018304,0.0,0 STARLINK-3915,1 52581U 22051AX  23095.82441133  .00018304  00000-0  11650-2 0  9997,2 52581  53.2155 237.4433 0001088  78.1454 281.9660 15.08844152 50225,6917.868,95.437,540.485,538.98,0.0
52581.0,STARLINK-3915,PAYLOAD,2023-04-06 02:08:41,15.08830176,0.0001201,53.2163,236.2532,78.8361,281.2766,0.0018285,0.00028925,0.0,0 STARLINK-3915,1 52581U 22051AX  23096.08937466  .00028925  00000-0  18285-2 0  9996,2 52581  53.2163 236.2532 0001201  78.8361 281.2766 15.08830176 50267,6917.91,95.438,540.606,538.945,0.0
52581.0,STARLINK-3915,PAYLOAD,2023-04-06 21:13:19,15.08862283,0.0001144,53.2158,232.6845,76.537,283.575,0.0010463,0.00016413,0.0,0 STARLINK-3915,1 52581U 22051AX  23096.88424996  .00016413  00000-0  10463-2 0  9992,2 52581  53.2158 232.6845 0001144  76.5370 283.5750 15.08862283 50452,6917.812,95.436,540.469,538.886,0.0
52581.0,STARLINK-3915,PAYLOAD,2023-04-07 01:59:28,15.08845776,4.01e-05,53.2163,231.7943,232.4848,127.6107,0.00024384,3.596e-05,0.0,0 STARLINK-3915,1 52581U 22051AX  23097.08296791  .00003596  00000-0  24384-3 0  9991,2 52581  53.2163 231.7943 0000401 232.4848 127.6107 15.08845776 50480,6917.863,95.437,540.005,539.45,0.0
52581.0,STARLINK-3915,PAYLOAD,2023-04-08 01:50:15,15.08813045,0.0001125,53.2168,227.3346,260.7554,99.331,0.00089688,0.00014004,0.0,0 STARLINK-3915,1 52581U 22051AX  23098.07656454  .00014004  00000-0  89688-3 0  9991,2 52581  53.2168 227.3346 0001125 260.7554  99.3310 15.08813045 50637,6917.963,95.439,540.606,539.05,0.0
52581.0,STARLINK-3915,PAYLOAD,2023-04-08 12:57:58,15.08838325,9.07e-05,53.2139,225.2514,86.7612,273.3484,0.0012261,0.00019278,0.0,0 STARLINK-3915,1 52581U 22051AX  23098.54025593  .00019278  00000-0  12261-2 0  9997,2 52581  53.2139 225.2514 0000907  86.7612 273.3484 15.08838325 50631,6917.886,95.438,540.378,539.123,0.0
52581.0,STARLINK-3915,PAYLOAD,2023-04-09 08:02:35,15.08840136,8.68e-05,53.2145,221.6853,93.0211,267.088,0.0007325,0.00011389,0.0,0 STARLINK-3915,1 52581U 22051AX  23099.33513659  .00011389  00000-0  73250-3 0  9991,2 52581  53.2145 221.6853 0000868  93.0211 267.0880 15.08840136 50820,6917.88,95.438,540.345,539.145,0.0
52581.0,STARLINK-3915,PAYLOAD,2023-04-09 19:10:17,15.08863312,0.0001207,53.215,219.6017,87.1953,272.9177,0.0018287,0.00028954,0.0,0 STARLINK-3915,1 52581U 22051AX  23099.79881488  .00028954  00000-0  18287-2 0  9993,2 52581  53.2150 219.6017 0001207  87.1953 272.9177 15.08863312 50825,6917.809,95.436,540.509,538.839,0.0
52581.0,STARLINK-3915,PAYLOAD,2023-04-10 07:53:22,15.08855577,0.0001537,53.2143,217.2221,105.1203,254.9959,0.0013797,0.00021748,0.0,0 STARLINK-3915,1 52581U 22051AX  23100.32873556  .00021748  00000-0  13797-2 0  9997,2 52581  53.2143 217.2221 0001537 105.1203 254.9959 15.08855577 50971,6917.833,95.437,540.761,538.635,0.0
52581.0,STARLINK-3915,PAYLOAD,2023-04-10 11:04:08,15.08856558,0.0001405,53.2146,216.6272,104.2959,255.819,0.001367,0.00021545,0.0,0 STARLINK-3915,1 52581U 22051AX  23100.46121493  .00021545  00000-0  13670-2 0  9993,2 52581  53.2146 216.6272 0001405 104.2959 255.8190 15.08856558 50927,6917.83,95.437,540.667,538.723,0.0
52581.0,STARLINK-3915,PAYLOAD,2023-04-10 17:25:41,15.08865408,0.0001333,53.2156,215.4393,96.3388,263.7756,0.0017158,0.00027144,0.0,0 STARLINK-3915,1 52581U 22051AX  23100.72617255  .00027144  00000-0  17158-2 0  9994,2 52581  53.2156 215.4393 0001333  96.3388 263.7756 15.08865408 50960,6917.803,95.436,540.59,538.746,0.0
52581.0,STARLINK-3915,PAYLOAD,2023-04-11 12:30:18,15.08857294,0.0001234,53.2158,211.8703,104.8499,255.263,0.00052608,8.098e-05,0.0,0 STARLINK-3915,1 52581U 22051AX  23101.52104871  .00008098  00000-0  52608-3 0  9995,2 52581  53.2158 211.8703 0001234 104.8499 255.2630 15.08857294 51158,6917.828,95.436,540.546,538.839,0.0
52581.0,STARLINK-3915,PAYLOAD,2023-04-11 17:16:27,15.08865811,0.0001003,53.2161,210.9775,97.0157,263.0949,0.00091359,0.00014292,0.0,0 STARLINK-3915,1 52581U 22051AX  23101.71976565  .00014292  00000-0  91359-3 0  9992,2 52581  53.2161 210.9775 0001003  97.0157 263.0949 15.08865811 51119,6917.801,95.436,540.36,538.973,0.0
52581.0,STARLINK-3915,PAYLOAD,2023-04-12 13:56:28,15.08845676,8.5e-05,53.2156,207.1136,101.349,258.7597,0.00072138,0.00011213,0.0,0 STARLINK-3915,1 52581U 22051AX  23102.58089044  .00011213  00000-0  72138-3 0  9999,2 52581  53.2156 207.1136 0000850 101.3490 258.7597 15.08845676 51241,6917.863,95.437,540.316,539.14,0.0
52581.0,STARLINK-3915,PAYLOAD,2023-04-13 05:50:20,15.08843167,7.79e-05,53.2171,204.1439,112.2187,247.8888,0.00039359,5.982e-05,0.0,0 STARLINK-3915,1 52581U 22051AX  23103.24329164  .00005982  00000-0  39359-3 0  9997,2 52581  53.2171 204.1439 0000779 112.2187 247.8888 15.08843167 51341,6917.871,95.437,540.275,539.197,0.0
52581.0,STARLINK-3915,PAYLOAD,2023-04-13 13:47:16,15.08837657,8.82e-05,53.2166,202.6555,103.122,256.987,1.3244e-05,-7.7e-07,0.0,0 STARLINK-3915,1 52581U 22051AX  23103.57449345 -.00000077  00000-0  13244-4 0  9994,2 52581  53.2166 202.6555 0000882 103.1220 256.9870 15.08837657 51461,6917.888,95.438,540.363,539.142,0.0
52581.0,STARLINK-3915,PAYLOAD,2023-04-14 12:02:40,15.08847543,9.72e-05,53.2159,198.488,93.93,266.1804,0.00033203,5.001e-05,0.0,0 STARLINK-3915,1 52581U 22051AX  23104.50185648  .00005001  00000-0  33203-3 0  9998,2 52581  53.2159 198.4880 0000972  93.9300 266.1804 15.08847543 51534,6917.857,95.437,540.395,539.05,0.0
